{"type": "FeatureCollection", "features": [ {"type": "Feature", "properties": {"norad_id": 31555, "name": "FENGYUN 1C DEB", "group": "fengyun-1c-debris", "lat": 43.43171105553277, "lon": -74.31248439847309, "alt_km": 849.8561902239317, "timestamp": "2025-12-06T16:45:43.005196+00:00", "meta": {"OBJECT_NAME": "FENGYUN 1C DEB", "OBJECT_ID": "1999-025BYW", "EPOCH": "2025-12-01T03:31:04.241568", "MEAN_MOTION": 14.440428, "ECCENTRICITY": 0.01547303, "INCLINATION": 99.1019, "RA_OF_ASC_NODE": 288.4787, "ARG_OF_PERICENTER": 231.041, "MEAN_ANOMALY": 127.6906, "EPHEMERIS_TYPE": 0, "CLASSIFICATION_TYPE": "U", "NORAD_CAT_ID": 31555, "ELEMENT_SET_NO": 999, "REV_AT_EPOCH": 96396, "BSTAR": 0.0015674525, "MEAN_MOTION_DOT": 6.152e-05, "MEAN_MOTION_DDOT": 0}, "tle": {"line1": "1 31555U 99025BYW 25335.14657687  .00006152  00000+0  15675-2 0  9995", "line2": "2 31555  99.1019 288.4787 0154730 231.0410 127.6906 14.44042800963966"}}, "geometry": {"type": "Point", "coordinates": [-74.31248439847309, 43.43171105553277]}}, {"type": "Feature", "properties": {"norad_id": 31558, "name": "FENGYUN 1C DEB", "group": "fengyun-1c-debris", "lat": 80.93885194818549, "lon": 159.92515450766618, "alt_km": 902.3410420932032, "timestamp": "2025-12-06T16:45:43.005207+00:00", "meta": {"OBJECT_NAME": "FENGYUN 1C DEB", "OBJECT_ID": "1999-025BYZ", "EPOCH": "2025-12-06T05:23:07.264896", "MEAN_MOTION": 14.38674817, "ECCENTRICITY": 0.02109084, "INCLINATION": 98.7909, "RA_OF_ASC_NODE": 235.446, "ARG_OF_PERICENTER": 281.709, "MEAN_ANOMALY": 231.9027, "EPHEMERIS_TYPE": 0, "CLASSIFICATION_TYPE": "U", "NORAD_CAT_ID": 31558, "ELEMENT_SET_NO": 999, "REV_AT_EPOCH": 97341, "BSTAR": 0.00057677203, "MEAN_MOTION_DOT": 2.235e-05, "MEAN_MOTION_DDOT": 0}, "tle": {"line1": "1 31558U 99025BYZ 25340.22438964  .00002235  00000+0  57677-3 0  9995", "line2": "2 31558  98.7909 235.4460 0210908 281.7090 231.9027 14.38674817973414"}}, "geometry": {"type": "Point", "coordinates": [159.92515450766618, 80.93885194818549]}}, {"type": "Feature", "properties": {"norad_id": 31559, "name": "FENGYUN 1C DEB", "group": "fengyun-1c-debris", "lat": 46.85186269713163, "lon": 123.9424709565261, "alt_km": 671.5495791564035, "timestamp": "2025-12-06T16:45:43.005217+00:00", "meta": {"OBJECT_NAME": "FENGYUN 1C DEB", "OBJECT_ID": "1999-025BZA", "EPOCH": "2025-12-04T17:07:15.255264", "MEAN_MOTION": 14.63373742, "ECCENTRICITY": 0.00542093, "INCLINATION": 98.867, "RA_OF_ASC_NODE": 292.2226, "ARG_OF_PERICENTER": 219.1644, "MEAN_ANOMALY": 262.1073, "EPHEMERIS_TYPE": 0, "CLASSIFICATION_TYPE": "U", "NORAD_CAT_ID": 31559, "ELEMENT_SET_NO": 999, "REV_AT_EPOCH": 97439, "BSTAR": 0.0036898008, "MEAN_MOTION_DOT": 0.00019474, "MEAN_MOTION_DDOT": 0}, "tle": {"line1": "1 31559U 99025BZA 25338.71337101  .00019474  00000+0  36898-2 0  9992", "line2": "2 31559  98.8670 292.2226 0054209 219.1644 262.1073 14.63373742974398"}}, "geometry": {"type": "Point", "coordinates": [123.9424709565261, 46.85186269713163]}}, {"type": "Feature", "properties": {"norad_id": 31560, "name": "FENGYUN 1C DEB", "group": "fengyun-1c-debris", "lat": -76.89671340674079, "lon": 57.47023118923249, "alt_km": 768.0114038070751, "timestamp": "2025-12-06T16:45:43.005228+00:00", "meta": {"OBJECT_NAME": "FENGYUN 1C DEB", "OBJECT_ID": "1999-025BZB", "EPOCH": "2025-12-03T19:51:18.790848", "MEAN_MOTION": 14.21218132, "ECCENTRICITY": 0.0120334, "INCLINATION": 98.59, "RA_OF_ASC_NODE": 14.1826, "ARG_OF_PERICENTER": 334.444, "MEAN_ANOMALY": 25.0819, "EPHEMERIS_TYPE": 0, "CLASSIFICATION_TYPE": "U", "NORAD_CAT_ID": 31560, "ELEMENT_SET_NO": 999, "REV_AT_EPOCH": 96492, "BSTAR": 0.00011051, "MEAN_MOTION_DOT": 2.15e-06, "MEAN_MOTION_DDOT": 0}, "tle": {"line1": "1 31560U 99025BZB 25337.82730082  .00000215  00000+0  11051-3 0  9998", "line2": "2 31560  98.5900  14.1826 0120334 334.4440  25.0819 14.21218132964925"}}, "geometry": {"type": "Point", "coordinates": [57.47023118923249, -76.89671340674079]}}, {"type": "Feature", "properties": {"norad_id": 31561, "name": "FENGYUN 1C DEB", "group": "fengyun-1c-debris", "lat": -30.339631033204864, "lon": -17.849870944235338, "alt_km": 916.0645988164315, "timestamp": "2025-12-06T16:45:43.005238+00:00", "meta": {"OBJECT_NAME": "FENGYUN 1C DEB", "OBJECT_ID": "1999-025BZC", "EPOCH": "2025-12-05T22:22:27.486048", "MEAN_MOTION": 14.02753079, "ECCENTRICITY": 0.00563741, "INCLINATION": 98.7156, "RA_OF_ASC_NODE": 336.2659, "ARG_OF_PERICENTER": 202.0378, "MEAN_ANOMALY": 219.9779, "EPHEMERIS_TYPE": 0, "CLASSIFICATION_TYPE": "U", "NORAD_CAT_ID": 31561, "ELEMENT_SET_NO": 999, "REV_AT_EPOCH": 95083, "BSTAR": 0.00085657485, "MEAN_MOTION_DOT": 1.301e-05, "MEAN_MOTION_DDOT": 0}, "tle": {"line1": "1 31561U 99025BZC 25339.93226257  .00001301  00000+0  85657-3 0  9997", "line2": "2 31561  98.7156 336.2659 0056374 202.0378 219.9779 14.02753079950832"}}, "geometry": {"type": "Point", "coordinates": [-17.849870944235338, -30.339631033204864]}}, {"type": "Feature", "properties": {"norad_id": 31562, "name": "FENGYUN 1C DEB", "group": "fengyun-1c-debris", "lat": 37.80687808029597, "lon": 124.4641415698955, "alt_km": 754.1092494795512, "timestamp": "2025-12-06T16:45:43.005250+00:00", "meta": {"OBJECT_NAME": "FENGYUN 1C DEB", "OBJECT_ID": "1999-025BZD", "EPOCH": "2025-12-05T08:56:39.638400", "MEAN_MOTION": 14.41991697, "ECCENTRICITY": 0.00573456, "INCLINATION": 99.2573, "RA_OF_ASC_NODE": 130.2974, "ARG_OF_PERICENTER": 304.9528, "MEAN_ANOMALY": 54.628, "EPHEMERIS_TYPE": 0, "CLASSIFICATION_TYPE": "U", "NORAD_CAT_ID": 31562, "ELEMENT_SET_NO": 999, "REV_AT_EPOCH": 96884, "BSTAR": 0.0017022006, "MEAN_MOTION_DOT": 5.646e-05, "MEAN_MOTION_DDOT": 0}, "tle": {"line1": "1 31562U 99025BZD 25339.37268100  .00005646  00000+0  17022-2 0  9995", "line2": "2 31562  99.2573 130.2974 0057345 304.9528  54.6280 14.41991697968846"}}, "geometry": {"type": "Point", "coordinates": [124.4641415698955, 37.80687808029597]}}, {"type": "Feature", "properties": {"norad_id": 31563, "name": "FENGYUN 1C DEB", "group": "fengyun-1c-debris", "lat": -71.64839167725107, "lon": 162.0213360155879, "alt_km": 763.1264895425593, "timestamp": "2025-12-06T16:45:43.005263+00:00", "meta": {"OBJECT_NAME": "FENGYUN 1C DEB", "OBJECT_ID": "1999-025BZE", "EPOCH": "2025-12-06T03:59:32.831808", "MEAN_MOTION": 14.65229926, "ECCENTRICITY": 0.01140797, "INCLINATION": 98.9509, "RA_OF_ASC_NODE": 133.0743, "ARG_OF_PERICENTER": 99.0865, "MEAN_ANOMALY": 262.3264, "EPHEMERIS_TYPE": 0, "CLASSIFICATION_TYPE": "U", "NORAD_CAT_ID": 31563, "ELEMENT_SET_NO": 999, "REV_AT_EPOCH": 98448, "BSTAR": 0.0011250418, "MEAN_MOTION_DOT": 6.613e-05, "MEAN_MOTION_DDOT": 0}, "tle": {"line1": "1 31563U 99025BZE 25340.16635222  .00006613  00000+0  11250-2 0  9990", "line2": "2 31563  98.9509 133.0743 0114079  99.0865 262.3264 14.65229926984484"}}, "geometry": {"type": "Point", "coordinates": [162.0213360155879, -71.64839167725107]}}, {"type": "Feature", "properties": {"norad_id": 31565, "name": "FENGYUN 1C DEB", "group": "fengyun-1c-debris", "lat": 76.65097841103342, "lon": 158.37672036798216, "alt_km": 727.0286839494511, "timestamp": "2025-12-06T16:45:43.005290+00:00", "meta": {"OBJECT_NAME": "FENGYUN 1C DEB", "OBJECT_ID": "1999-025BZG", "EPOCH": "2025-11-29T09:07:25.735008", "MEAN_MOTION": 14.38541647, "ECCENTRICITY": 0.00553237, "INCLINATION": 100.7173, "RA_OF_ASC_NODE": 202.2097, "ARG_OF_PERICENTER": 58.3475, "MEAN_ANOMALY": 302.3085, "EPHEMERIS_TYPE": 0, "CLASSIFICATION_TYPE": "U", "NORAD_CAT_ID": 31565, "ELEMENT_SET_NO": 999, "REV_AT_EPOCH": 64161, "BSTAR": 0.0030186467, "MEAN_MOTION_DOT": 9.348e-05, "MEAN_MOTION_DDOT": 0}, "tle": {"line1": "1 31565U 99025BZG 25333.38015897  .00009348  00000+0  30186-2 0  9995", "line2": "2 31565 100.7173 202.2097 0055323  58.3475 302.3085 14.38541647641615"}}, "geometry": {"type": "Point", "coordinates": [158.37672036798216, 76.65097841103342]}}, {"type": "Feature", "properties": {"norad_id": 31566, "name": "FENGYUN 1C DEB", "group": "fengyun-1c-debris", "lat": 12.69685600831774, "lon": -138.59336853987136, "alt_km": 783.1687856285916, "timestamp": "2025-12-06T16:45:43.005304+00:00", "meta": {"OBJECT_NAME": "FENGYUN 1C DEB", "OBJECT_ID": "1999-025BZH", "EPOCH": "2025-12-06T02:45:39.226176", "MEAN_MOTION": 14.37274352, "ECCENTRICITY": 0.00230671, "INCLINATION": 98.9494, "RA_OF_ASC_NODE": 38.7654, "ARG_OF_PERICENTER": 16.7243, "MEAN_ANOMALY": 13.3843, "EPHEMERIS_TYPE": 0, "CLASSIFICATION_TYPE": "U", "NORAD_CAT_ID": 31566, "ELEMENT_SET_NO": 999, "REV_AT_EPOCH": 96296, "BSTAR": 0.0032630392, "MEAN_MOTION_DOT": 9.722e-05, "MEAN_MOTION_DDOT": 0}, "tle": {"line1": "1 31566U 99025BZH 25340.11503734  .00009722  00000+0  32630-2 0  9999", "line2": "2 31566  98.9494  38.7654 0023067  16.7243  13.3843 14.37274352962962"}}, "geometry": {"type": "Point", "coordinates": [-138.59336853987136, 12.69685600831774]}}, {"type": "Feature", "properties": {"norad_id": 31567, "name": "FENGYUN 1C DEB", "group": "fengyun-1c-debris", "lat": -19.878213899947514, "lon": -150.04864895263108, "alt_km": 792.5732884032896, "timestamp": "2025-12-06T16:45:43.005315+00:00", "meta": {"OBJECT_NAME": "FENGYUN 1C DEB", "OBJECT_ID": "1999-025BZJ", "EPOCH": "2025-12-04T20:02:00.270240", "MEAN_MOTION": 13.92774926, "ECCENTRICITY": 0.01874049, "INCLINATION": 102.3178, "RA_OF_ASC_NODE": 202.9485, "ARG_OF_PERICENTER": 327.4998, "MEAN_ANOMALY": 31.4723, "EPHEMERIS_TYPE": 0, "CLASSIFICATION_TYPE": "U", "NORAD_CAT_ID": 31567, "ELEMENT_SET_NO": 999, "REV_AT_EPOCH": 67299, "BSTAR": 0.006802903, "MEAN_MOTION_DOT": 0.00010117, "MEAN_MOTION_DDOT": 0}, "tle": {"line1": "1 31567U 99025BZJ 25338.83472535  .00010117  00000+0  68029-2 0  9991", "line2": "2 31567 102.3178 202.9485 0187404 327.4998  31.4723 13.92774926672995"}}, "geometry": {"type": "Point", "coordinates": [-150.04864895263108, -19.878213899947514]}}]}